#cP2005  4 17 00 00 00.00000000    8638 U+u   IGS00 FIT DEOS
## 1319      0.00000000    10.00000000 53477 0.0000000000000
+    1   L06  0  0  0  0  0  0  0  0  0  0  0  0  0  0  0  0
+          0  0  0  0  0  0  0  0  0  0  0  0  0  0  0  0  0
+          0  0  0  0  0  0  0  0  0  0  0  0  0  0  0  0  0
+          0  0  0  0  0  0  0  0  0  0  0  0  0  0  0  0  0
+          0  0  0  0  0  0  0  0  0  0  0  0  0  0  0  0  0
++         0  0  0  0  0  0  0  0  0  0  0  0  0  0  0  0  0
++         0  0  0  0  0  0  0  0  0  0  0  0  0  0  0  0  0
++         0  0  0  0  0  0  0  0  0  0  0  0  0  0  0  0  0
++         0  0  0  0  0  0  0  0  0  0  0  0  0  0  0  0  0
++         0  0  0  0  0  0  0  0  0  0  0  0  0  0  0  0  0
%c cc cc ccc ccc cccc cccc cccc cccc ccccc ccccc ccccc ccccc
%c cc cc ccc ccc cccc cccc cccc cccc ccccc ccccc ccccc ccccc
%f   .0000000   .000000000   .00000000000   .000000000000000
%f   .0000000   .000000000   .00000000000   .000000000000000
%i    0    0    0    0      0      0      0      0         0
%i    0    0    0    0      0      0      0      0         0
/* NOTE: CCCCCCCCCCCCCCCCCCCCCCCCCCCCCCCCCCCCCCCCCCCCCCCCCCC
/* CCCCCCCCCCCCCCCCCCCCCCCCCCCCCCCCCCCCCCCCCCCCCCCCCCCCCCCCC
/* CCCCCCCCCCCCCCCCCCCCCCCCCCCCCCCCCCCCCCCCCCCCCCCCCCCCCCCCC
/* CCCCCCCCCCCCCCCCCCCCCCCCCCCCCCCCCCCCCCCCCCCCCCCCCCCCCCCCC
*  2005 04 17 01 17 30.00000000
PL06  -2911.492400    847.841795  -6025.805025 999999.999999
*  2005 04 17 01 17 40.00000000
PL06  -2847.538396    822.935974  -6059.731748 999999.999999
*  2005 04 17 01 17 50.00000000
PL06  -2783.254275    797.830703  -6092.872833 999999.999999
*  2005 04 17 01 18 00.00000000
PL06  -2718.648626    772.528746  -6125.224038 999999.999999
*  2005 04 17 01 18 10.00000000
PL06  -2653.730073    747.032904  -6156.781223 999999.999999
*  2005 04 17 01 18 20.00000000
PL06  -2588.507276    721.346014  -6187.540349 999999.999999
*  2005 04 17 01 18 30.00000000
PL06  -2522.988928    695.470953  -6217.497481 999999.999999
*  2005 04 17 01 18 40.00000000
PL06  -2457.183752    669.410629  -6246.648785 999999.999999
*  2005 04 17 01 18 50.00000000
PL06  -2391.100506    643.167992  -6274.990535 999999.999999
*  2005 04 17 01 19 00.00000000
PL06  -2324.747973    616.746022  -6302.519105 999999.999999
*  2005 04 17 01 19 10.00000000
PL06  -2258.134969    590.147738  -6329.230975 999999.999999
*  2005 04 17 01 19 20.00000000
PL06  -2191.270334    563.376192  -6355.122729 999999.999999
*  2005 04 17 01 19 30.00000000
PL06  -2124.162937    536.434473  -6380.191057 999999.999999
*  2005 04 17 01 19 40.00000000
PL06  -2056.821670    509.325703  -6404.432754 999999.999999
*  2005 04 17 01 19 50.00000000
PL06  -1989.255451    482.053037  -6427.844721 999999.999999
*  2005 04 17 01 20 00.00000000
PL06  -1921.473222    454.619666  -6450.423964 999999.999999
*  2005 04 17 01 20 10.00000000
PL06  -1853.483943    427.028812  -6472.167599 999999.999999
*  2005 04 17 01 20 20.00000000
PL06  -1785.296599    399.283732  -6493.072846 999999.999999
*  2005 04 17 01 20 30.00000000
PL06  -1716.920191    371.387714  -6513.137033 999999.999999
*  2005 04 17 01 20 40.00000000
PL06  -1648.363741    343.344080  -6532.357598 999999.999999
*  2005 04 17 01 20 50.00000000
PL06  -1579.636286    315.156181  -6550.732083 999999.999999
*  2005 04 17 01 21 00.00000000
PL06  -1510.746879    286.827401  -6568.258141 999999.999999
*  2005 04 17 01 21 10.00000000
PL06  -1441.704590    258.361156  -6584.933532 999999.999999
*  2005 04 17 01 21 20.00000000
PL06  -1372.518501    229.760891  -6600.756125 999999.999999
*  2005 04 17 01 21 30.00000000
PL06  -1303.197706    201.030081  -6615.723897 999999.999999
*  2005 04 17 01 21 40.00000000
PL06  -1233.751312    172.172233  -6629.834935 999999.999999
*  2005 04 17 01 21 50.00000000
PL06  -1164.188436    143.190881  -6643.087437 999999.999999
*  2005 04 17 01 22 00.00000000
PL06  -1094.518203    114.089589  -6655.479708 999999.999999
*  2005 04 17 01 22 10.00000000
PL06  -1024.749746     84.871950  -6667.010163 999999.999999
*  2005 04 17 01 22 20.00000000
PL06   -954.892207     55.541584  -6677.677329 999999.999999
*  2005 04 17 01 22 30.00000000
PL06   -884.954729     26.102140  -6687.479840 999999.999999
*  2005 04 17 01 22 40.00000000
PL06   -814.946464     -3.442708  -6696.416444 999999.999999
*  2005 04 17 01 22 50.00000000
PL06   -744.876565    -33.089256  -6704.485996 999999.999999
*  2005 04 17 01 23 00.00000000
PL06   -674.754188    -62.833776  -6711.687462 999999.999999
*  2005 04 17 01 23 10.00000000
PL06   -604.588488    -92.672513  -6718.019921 999999.999999
*  2005 04 17 01 23 20.00000000
PL06   -534.388622   -122.601689  -6723.482559 999999.999999
*  2005 04 17 01 23 30.00000000
PL06   -464.163746   -152.617497  -6728.074677 999999.999999
*  2005 04 17 01 23 40.00000000
PL06   -393.923013   -182.716110  -6731.795685 999999.999999
*  2005 04 17 01 23 50.00000000
PL06   -323.675571   -212.893674  -6734.645102 999999.999999
*  2005 04 17 01 24 00.00000000
PL06   -253.430565   -243.146312  -6736.622562 999999.999999
*  2005 04 17 01 24 10.00000000
PL06   -183.197134   -273.470125  -6737.727810 999999.999999
*  2005 04 17 01 24 20.00000000
PL06   -112.984408   -303.861191  -6737.960699 999999.999999
*  2005 04 17 01 24 30.00000000
PL06    -42.801512   -334.315566  -6737.321196 999999.999999
*  2005 04 17 01 24 40.00000000
PL06     27.342443   -364.829284  -6735.809380 999999.999999
*  2005 04 17 01 24 50.00000000
PL06     97.438354   -395.398358  -6733.425440 999999.999999
*  2005 04 17 01 25 00.00000000
PL06    167.477131   -426.018781  -6730.169676 999999.999999
*  2005 04 17 01 25 10.00000000
PL06    237.449695   -456.686525  -6726.042500 999999.999999
*  2005 04 17 01 25 20.00000000
PL06    307.346985   -487.397543  -6721.044434 999999.999999
*  2005 04 17 01 25 30.00000000
PL06    377.159952   -518.147768  -6715.176113 999999.999999
*  2005 04 17 01 25 40.00000000
PL06    446.879565   -548.933117  -6708.438281 999999.999999
*  2005 04 17 01 25 50.00000000
PL06    516.496811   -579.749487  -6700.831794 999999.999999
*  2005 04 17 01 26 00.00000000
PL06    586.002694   -610.592757  -6692.357618 999999.999999
*  2005 04 17 01 26 10.00000000
PL06    655.388239   -641.458792  -6683.016831 999999.999999
*  2005 04 17 01 26 20.00000000
PL06    724.644493   -672.343438  -6672.810620 999999.999999
*  2005 04 17 01 26 30.00000000
PL06    793.762521   -703.242527  -6661.740283 999999.999999
*  2005 04 17 01 26 40.00000000
PL06    862.733417   -734.151875  -6649.807229 999999.999999
*  2005 04 17 01 26 50.00000000
PL06    931.548295   -765.067284  -6637.012976 999999.999999
*  2005 04 17 01 27 00.00000000
PL06   1000.198295   -795.984542  -6623.359152 999999.999999
*  2005 04 17 01 27 10.00000000
PL06   1068.674586   -826.899423  -6608.847495 999999.999999
*  2005 04 17 01 27 20.00000000
PL06   1136.968363   -857.807686  -6593.479852 999999.999999
*  2005 04 17 01 27 30.00000000
PL06   1205.070848   -888.705081  -6577.258180 999999.999999
*  2005 04 17 01 27 40.00000000
PL06   1272.973294   -919.587344  -6560.184544 999999.999999
*  2005 04 17 01 27 50.00000000
PL06   1340.666986   -950.450199  -6542.261118 999999.999999
*  2005 04 17 01 28 00.00000000
PL06   1408.143238   -981.289360  -6523.490187 999999.999999
*  2005 04 17 01 28 10.00000000
PL06   1475.393400  -1012.100532  -6503.874143 999999.999999
*  2005 04 17 01 28 20.00000000
PL06   1542.408854  -1042.879407  -6483.415486 999999.999999
*  2005 04 17 01 28 30.00000000
PL06   1609.181017  -1073.621670  -6462.116826 999999.999999
*  2005 04 17 01 28 40.00000000
PL06   1675.701346  -1104.323000  -6439.980879 999999.999999
*  2005 04 17 01 28 50.00000000
PL06   1741.961331  -1134.979065  -6417.010471 999999.999999
*  2005 04 17 01 29 00.00000000
PL06   1807.952505  -1165.585526  -6393.208532 999999.999999
*  2005 04 17 01 29 10.00000000
PL06   1873.666439  -1196.138041  -6368.578099 999999.999999
*  2005 04 17 01 29 20.00000000
PL06   1939.094744  -1226.632257  -6343.122316 999999.999999
*  2005 04 17 01 29 30.00000000
PL06   2004.229073  -1257.063820  -6316.844432 999999.999999
*  2005 04 17 01 29 40.00000000
PL06   2069.061123  -1287.428368  -6289.747803 999999.999999
*  2005 04 17 01 29 50.00000000
PL06   2133.582633  -1317.721536  -6261.835887 999999.999999
*  2005 04 17 01 30 00.00000000
PL06   2197.785387  -1347.938956  -6233.112250 999999.999999
*  2005 04 17 01 30 10.00000000
PL06   2261.661215  -1378.076255  -6203.580562 999999.999999
*  2005 04 17 01 30 20.00000000
PL06   2325.201994  -1408.129060  -6173.244595 999999.999999
*  2005 04 17 01 30 30.00000000
PL06   2388.399649  -1438.092994  -6142.108227 999999.999999
*  2005 04 17 01 30 40.00000000
PL06   2451.246155  -1467.963679  -6110.175438 999999.999999
*  2005 04 17 01 30 50.00000000
PL06   2513.733535  -1497.736739  -6077.450311 999999.999999
*  2005 04 17 01 31 00.00000000
PL06   2575.853863  -1527.407795  -6043.937030 999999.999999
*  2005 04 17 01 31 10.00000000
PL06   2637.599267  -1556.972470  -6009.639883 999999.999999
*  2005 04 17 01 31 20.00000000
PL06   2698.961926  -1586.426389  -5974.563258 999999.999999
*  2005 04 17 01 31 30.00000000
PL06   2759.934073  -1615.765177  -5938.711644 999999.999999
*  2005 04 17 01 31 40.00000000
PL06   2820.507997  -1644.984463  -5902.089630 999999.999999
*  2005 04 17 01 31 50.00000000
PL06   2880.676042  -1674.079879  -5864.701906 999999.999999
*  2005 04 17 01 32 00.00000000
PL06   2940.430609  -1703.047062  -5826.553260 999999.999999
*  2005 04 17 01 32 10.00000000
PL06   2999.764157  -1731.881651  -5787.648582 999999.999999
*  2005 04 17 01 32 20.00000000
PL06   3058.669204  -1760.579292  -5747.992856 999999.999999
*  2005 04 17 01 32 30.00000000
PL06   3117.138329  -1789.135638  -5707.591167 999999.999999
*  2005 04 17 01 32 40.00000000
PL06   3175.164171  -1817.546347  -5666.448696 999999.999999
*  2005 04 17 01 32 50.00000000
PL06   3232.739430  -1845.807084  -5624.570720 999999.999999
EOF
